{
  "type": "FeatureCollection",
  "features": [
    {
      "type": "Feature",
      "properties": {
        "norad_id": 29740,
        "name": "FENGYUN 1C DEB",
        "group": "fengyun-1c-debris",
        "lat": -78.8525498718049,
        "lon": -41.541857250941284,
        "alt_km": 1089.1637584234331,
        "timestamp": "2025-12-04T10:51:50.376409+00:00",
        "meta_object_name": "FENGYUN 1C DEB",
        "meta_object_id": "1999-025AE",
        "meta_epoch": "2025-12-03T19:30:19.211904",
        "meta_mean_motion": 12.08324593,
        "meta_eccentricity": 0.09759588,
        "meta_inclination": 99.0432,
        "meta_ra_of_asc_node": 191.9129,
        "meta_arg_of_pericenter": 216.5451,
        "meta_mean_anomaly": 136.5046,
        "meta_ephemeris_type": 0,
        "meta_classification_type": "U",
        "meta_norad_cat_id": 29740,
        "meta_element_set_no": 999,
        "meta_rev_at_epoch": 82827,
        "meta_bstar": -0.00013497926,
        "meta_mean_motion_dot": -8.1e-07,
        "meta_mean_motion_ddot": 0,
        "tle_line1": "1 29740U 99025AE  25337.81272236 -.00000081  00000+0 -13498-3 0  9996",
        "tle_line2": "2 29740  99.0432 191.9129 0975958 216.5451 136.5046 12.08324593828279"
      },
      "geometry": {
        "type": "Point",
        "coordinates": [
          -41.541857250941284,
          -78.8525498718049
        ]
      }
    },
    {
      "type": "Feature",
      "properties": {
        "norad_id": 29741,
        "name": "FENGYUN 1C DEB",
        "group": "fengyun-1c-debris",
        "lat": -23.34683595405712,
        "lon": -140.85938745036606,
        "alt_km": 1796.428470381089,
        "timestamp": "2025-12-04T10:51:50.376419+00:00",
        "meta_object_name": "FENGYUN 1C DEB",
        "meta_object_id": "1999-025AF",
        "meta_epoch": "2025-12-03T15:16:15.951072",
        "meta_mean_motion": 12.00886762,
        "meta_eccentricity": 0.10233496,
        "meta_inclination": 99.1761,
        "meta_ra_of_asc_node": 214.5558,
        "meta_arg_of_pericenter": 81.7836,
        "meta_mean_anomaly": 338.4998,
        "meta_ephemeris_type": 0,
        "meta_classification_type": "U",
        "meta_norad_cat_id": 29741,
        "meta_element_set_no": 999,
        "meta_rev_at_epoch": 52074,
        "meta_bstar": 0.0061428137,
        "meta_mean_motion_dot": 2.376e-05,
        "meta_mean_motion_ddot": 0,
        "tle_line1": "1 29741U 99025AF  25337.63629573  .00002376  00000+0  61428-2 0  9999",
        "tle_line2": "2 29741  99.1761 214.5558 1023349  81.7836 338.4998 12.00886762520745"
      },
      "geometry": {
        "type": "Point",
        "coordinates": [
          -140.85938745036606,
          -23.34683595405712
        ]
      }
    },
    {
      "type": "Feature",
      "properties": {
        "norad_id": 29748,
        "name": "FENGYUN 1C DEB",
        "group": "fengyun-1c-debris",
        "lat": -56.456042508870716,
        "lon": 76.36315559520668,
        "alt_km": 2268.8653232308907,
        "timestamp": "2025-12-04T10:51:50.376430+00:00",
        "meta_object_name": "FENGYUN 1C DEB",
        "meta_object_id": "1999-025AN",
        "meta_epoch": "2025-12-03T07:16:41.439360",
        "meta_mean_motion": 11.89330675,
        "meta_eccentricity": 0.0823623,
        "meta_inclination": 99.8072,
        "meta_ra_of_asc_node": 270.6311,
        "meta_arg_of_pericenter": 25.6268,
        "meta_mean_anomaly": 338.3319,
        "meta_ephemeris_type": 0,
        "meta_classification_type": "U",
        "meta_norad_cat_id": 29748,
        "meta_element_set_no": 999,
        "meta_rev_at_epoch": 78621,
        "meta_bstar": 0.20401,
        "meta_mean_motion_dot": 0.00037448,
        "meta_mean_motion_ddot": 0,
        "tle_line1": "1 29748U 99025AN  25337.30325740  .00037448  00000+0  20401+0 0  9990",
        "tle_line2": "2 29748  99.8072 270.6311 0823623  25.6268 338.3319 11.89330675786217"
      },
      "geometry": {
        "type": "Point",
        "coordinates": [
          76.36315559520668,
          -56.456042508870716
        ]
      }
    },
    {
      "type": "Feature",
      "properties": {
        "norad_id": 29750,
        "name": "FENGYUN 1C DEB",
        "group": "fengyun-1c-debris",
        "lat": -4.8201028659181,
        "lon": 8.543652218433651,
        "alt_km": 841.900108180068,
        "timestamp": "2025-12-04T10:51:50.376441+00:00",
        "meta_object_name": "FENGYUN 1C DEB",
        "meta_object_id": "1999-025AQ",
        "meta_epoch": "2025-12-03T20:23:08.763072",
        "meta_mean_motion": 14.0963189,
        "meta_eccentricity": 0.00353364,
        "meta_inclination": 98.7556,
        "meta_ra_of_asc_node": 7.2124,
        "meta_arg_of_pericenter": 327.1974,
        "meta_mean_anomaly": 208.2024,
        "meta_ephemeris_type": 0,
        "meta_classification_type": "U",
        "meta_norad_cat_id": 29750,
        "meta_element_set_no": 999,
        "meta_rev_at_epoch": 96948,
        "meta_bstar": 0.00044577223,
        "meta_mean_motion_dot": 7.42e-06,
        "meta_mean_motion_ddot": 0,
        "tle_line1": "1 29750U 99025AQ  25337.84940698  .00000742  00000+0  44577-3 0  9998",
        "tle_line2": "2 29750  98.7556   7.2124 0035336 327.1974 208.2024 14.09631890969489"
      },
      "geometry": {
        "type": "Point",
        "coordinates": [
          8.543652218433651,
          -4.8201028659181
        ]
      }
    },
    {
      "type": "Feature",
      "properties": {
        "norad_id": 29751,
        "name": "FENGYUN 1C DEB",
        "group": "fengyun-1c-debris",
        "lat": 71.98586809581339,
        "lon": -20.965322269382114,
        "alt_km": 804.5507826260755,
        "timestamp": "2025-12-04T10:51:50.376451+00:00",
        "meta_object_name": "FENGYUN 1C DEB",
        "meta_object_id": "1999-025AR",
        "meta_epoch": "2025-12-03T13:18:05.603328",
        "meta_mean_motion": 14.23617538,
        "meta_eccentricity": 0.00895246,
        "meta_inclination": 98.5425,
        "meta_ra_of_asc_node": 5.6916,
        "meta_arg_of_pericenter": 165.785,
        "meta_mean_anomaly": 347.4684,
        "meta_ephemeris_type": 0,
        "meta_classification_type": "U",
        "meta_norad_cat_id": 29751,
        "meta_element_set_no": 999,
        "meta_rev_at_epoch": 97942,
        "meta_bstar": 0.00024274068,
        "meta_mean_motion_dot": 5.34e-06,
        "meta_mean_motion_ddot": 0,
        "tle_line1": "1 29751U 99025AR  25337.55423152  .00000534  00000+0  24274-3 0  9999",
        "tle_line2": "2 29751  98.5425   5.6916 0089524 165.7850 347.4684 14.23617538979423"
      },
      "geometry": {
        "type": "Point",
        "coordinates": [
          -20.965322269382114,
          71.98586809581339
        ]
      }
    },
    {
      "type": "Feature",
      "properties": {
        "norad_id": 29754,
        "name": "FENGYUN 1C DEB",
        "group": "fengyun-1c-debris",
        "lat": -16.552565854083127,
        "lon": 83.83622081650307,
        "alt_km": 828.7073391436534,
        "timestamp": "2025-12-04T10:51:50.376461+00:00",
        "meta_object_name": "FENGYUN 1C DEB",
        "meta_object_id": "1999-025AU",
        "meta_epoch": "2025-12-03T13:15:35.257824",
        "meta_mean_motion": 14.19087876,
        "meta_eccentricity": 0.00355554,
        "meta_inclination": 98.885,
        "meta_ra_of_asc_node": 80.2693,
        "meta_arg_of_pericenter": 265.854,
        "meta_mean_anomaly": 160.9291,
        "meta_ephemeris_type": 0,
        "meta_classification_type": "U",
        "meta_norad_cat_id": 29754,
        "meta_element_set_no": 999,
        "meta_rev_at_epoch": 97224,
        "meta_bstar": 0.0014389482,
        "meta_mean_motion_dot": 2.982e-05,
        "meta_mean_motion_ddot": 0,
        "tle_line1": "1 29754U 99025AU  25337.55249141  .00002982  00000+0  14389-2 0  9990",
        "tle_line2": "2 29754  98.8850  80.2693 0035555 265.8540 160.9291 14.19087876972241"
      },
      "geometry": {
        "type": "Point",
        "coordinates": [
          83.83622081650307,
          -16.552565854083127
        ]
      }
    },
    {
      "type": "Feature",
      "properties": {
        "norad_id": 29758,
        "name": "FENGYUN 1C DEB",
        "group": "fengyun-1c-debris",
        "lat": 14.581432082204977,
        "lon": 91.54853418348699,
        "alt_km": 745.9570175343915,
        "timestamp": "2025-12-04T10:51:50.376471+00:00",
        "meta_object_name": "FENGYUN 1C DEB",
        "meta_object_id": "1999-025AY",
        "meta_epoch": "2025-12-03T13:43:16.487040",
        "meta_mean_motion": 14.40738498,
        "meta_eccentricity": 0.00203117,
        "meta_inclination": 98.856,
        "meta_ra_of_asc_node": 92.9613,
        "meta_arg_of_pericenter": 336.1425,
        "meta_mean_anomaly": 151.9822,
        "meta_ephemeris_type": 0,
        "meta_classification_type": "U",
        "meta_norad_cat_id": 29758,
        "meta_element_set_no": 999,
        "meta_rev_at_epoch": 97539,
        "meta_bstar": 0.0037153617,
        "meta_mean_motion_dot": 0.0001188,
        "meta_mean_motion_ddot": 0,
        "tle_line1": "1 29758U 99025AY  25337.57171860  .00011880  00000+0  37154-2 0  9990",
        "tle_line2": "2 29758  98.8560  92.9613 0020311 336.1425 151.9822 14.40738498975399"
      },
      "geometry": {
        "type": "Point",
        "coordinates": [
          91.54853418348699,
          14.581432082204977
        ]
      }
    }
  ]
}